start=new Date('2023-01-18T00:00:00.000Z').valueOf();
sats=[{"ARG_OF_PERICENTER":"131.1760","NORAD_CAT_ID":"54102","RCS_SIZE":"LARGE","OBJECT_ID":"2022-136BD","MEAN_MOTION_DDOT":"0.0000000000000","ELEMENT_SET_NO":"999","OBJECT_NAME":"STARLINK-5179","ECCENTRICITY":"0.00001520","SITE":"AFETR","MEAN_MOTION_DOT":"-0.00005395","PERIOD":"95.441","REF_FRAME":"TEME","TLE_LINE1":"1 54102U 22136BD  23017.56955679 -.00005395  00000-0 -32161-3 0  9991","BSTAR":"-0.00032161000000","REV_AT_EPOCH":"1381","MEAN_ANOMALY":"228.9245","TLE_LINE2":"2 54102  53.2175  83.3316 0000152 131.1760 228.9245 15.08787655 13815","GP_ID":"223325895","RA_OF_ASC_NODE":"83.3316","CENTER_NAME":"EARTH","APOAPSIS":"540.011","SEMIMAJOR_AXIS":"6918.040","TIME_SYSTEM":"UTC","COUNTRY_CODE":"US","INCLINATION":"53.2175","MEAN_ELEMENT_THEORY":"SGP4","EPHEMERIS_TYPE":"0","FILE":"3753023","EPOCH":"2023-01-17T13:40:09.706656","DECAY_DATE":null,"OBJECT_TYPE":"PAYLOAD","CLASSIFICATION_TYPE":"U","PERIAPSIS":"539.800","LAUNCH_DATE":"2022-10-20","MEAN_MOTION":"15.08787655"},{"DECAY_DATE":null,"FILE":"3753286","EPOCH":"2023-01-17T22:00:00.999936","PERIAPSIS":"396.531","CLASSIFICATION_TYPE":"U","OBJECT_TYPE":"PAYLOAD","LAUNCH_DATE":"2022-10-20","MEAN_MOTION":"15.56669579","MEAN_ANOMALY":"164.7935","RA_OF_ASC_NODE":"66.4126","GP_ID":"223384744","TLE_LINE2":"2 54103  53.2145  66.4126 0001143  93.5468 164.7935 15.56669579  1302","TIME_SYSTEM":"UTC","CENTER_NAME":"EARTH","APOAPSIS":"398.080","SEMIMAJOR_AXIS":"6775.441","COUNTRY_CODE":"US","MEAN_ELEMENT_THEORY":"SGP4","INCLINATION":"53.2145","EPHEMERIS_TYPE":"0","ECCENTRICITY":"0.00011430","SITE":"AFETR","MEAN_MOTION_DOT":"-0.00872384","PERIOD":"92.505","REF_FRAME":"TEME","REV_AT_EPOCH":"130","BSTAR":"-0.01317100000000","TLE_LINE1":"1 54103U 22136BE  23017.91667824 -.00872384  00000-0 -13171-1 0  9991","ARG_OF_PERICENTER":"93.5468","NORAD_CAT_ID":"54103","RCS_SIZE":"LARGE","OBJECT_ID":"2022-136BE","MEAN_MOTION_DDOT":"0.0000000000000","ELEMENT_SET_NO":"999","OBJECT_NAME":"STARLINK-5200"},{"MEAN_MOTION":"15.73213057","LAUNCH_DATE":"2022-10-20","OBJECT_TYPE":"PAYLOAD","CLASSIFICATION_TYPE":"U","PERIAPSIS":"348.557","FILE":"3753023","EPOCH":"2023-01-17T12:12:52.562880","DECAY_DATE":null,"COUNTRY_CODE":"US","CENTER_NAME":"EARTH","APOAPSIS":"350.889","SEMIMAJOR_AXIS":"6727.858","TIME_SYSTEM":"UTC","TLE_LINE2":"2 54104  53.2149  67.9290 0001733  32.4387 327.6740 15.73213057 14024","GP_ID":"223325414","RA_OF_ASC_NODE":"67.9290","MEAN_ANOMALY":"327.6740","EPHEMERIS_TYPE":"0","INCLINATION":"53.2149","MEAN_ELEMENT_THEORY":"SGP4","PERIOD":"91.532","MEAN_MOTION_DOT":"0.00001829","ECCENTRICITY":"0.00017330","SITE":"AFETR","TLE_LINE1":"1 54104U 22136BF  23017.50894170  .00001829  00000-0  17443-4 0  9998","BSTAR":"0.00001744300000","REV_AT_EPOCH":"1402","REF_FRAME":"TEME","NORAD_CAT_ID":"54104","ARG_OF_PERICENTER":"32.4387","OBJECT_NAME":"STARLINK-5203","ELEMENT_SET_NO":"999","MEAN_MOTION_DDOT":"0.0000000000000","RCS_SIZE":"LARGE","OBJECT_ID":"2022-136BF"},{"PERIOD":"95.439","SITE":"AFWTR","ECCENTRICITY":"0.00015500","MEAN_MOTION_DOT":"0.00001119","REV_AT_EPOCH":"1255","TLE_LINE1":"1 54157U 22141A   23017.65792182  .00001119  00000-0  88432-4 0  9996","BSTAR":"0.00008843200000","REF_FRAME":"TEME","NORAD_CAT_ID":"54157","ARG_OF_PERICENTER":"122.2625","ELEMENT_SET_NO":"999","OBJECT_NAME":"STARLINK-5290","RCS_SIZE":"LARGE","OBJECT_ID":"2022-141A","MEAN_MOTION_DDOT":"0.0000000000000","LAUNCH_DATE":"2022-10-28","MEAN_MOTION":"15.08819216","EPOCH":"2023-01-17T15:47:24.445248","FILE":"3753286","DECAY_DATE":null,"CLASSIFICATION_TYPE":"U","PERIAPSIS":"538.737","OBJECT_TYPE":"PAYLOAD","TIME_SYSTEM":"UTC","APOAPSIS":"540.881","SEMIMAJOR_AXIS":"6917.944","CENTER_NAME":"EARTH","COUNTRY_CODE":"US","MEAN_ANOMALY":"237.8517","RA_OF_ASC_NODE":"123.4078","GP_ID":"223384034","TLE_LINE2":"2 54157  53.2175 123.4078 0001550 122.2625 237.8517 15.08819216 12550","EPHEMERIS_TYPE":"0","MEAN_ELEMENT_THEORY":"SGP4","INCLINATION":"53.2175"},{"BSTAR":"-0.00014808000000","TLE_LINE1":"1 54158U 22141B   23017.33408472 -.00002643  00000-0 -14808-3 0  9998","REV_AT_EPOCH":"1250","REF_FRAME":"TEME","PERIOD":"95.439","ECCENTRICITY":"0.00009600","SITE":"AFWTR","MEAN_MOTION_DOT":"-0.00002643","ELEMENT_SET_NO":"999","OBJECT_NAME":"STARLINK-5297","OBJECT_ID":"2022-141B","RCS_SIZE":"LARGE","MEAN_MOTION_DDOT":"0.0000000000000","NORAD_CAT_ID":"54158","ARG_OF_PERICENTER":"87.3039","LAUNCH_DATE":"2022-10-28","MEAN_MOTION":"15.08823464","EPOCH":"2023-01-17T08:01:04.919808","FILE":"3753023","DECAY_DATE":null,"OBJECT_TYPE":"PAYLOAD","CLASSIFICATION_TYPE":"U","PERIAPSIS":"539.132","EPHEMERIS_TYPE":"0","INCLINATION":"53.2148","MEAN_ELEMENT_THEORY":"SGP4","APOAPSIS":"540.460","CENTER_NAME":"EARTH","SEMIMAJOR_AXIS":"6917.931","TIME_SYSTEM":"UTC","COUNTRY_CODE":"US","MEAN_ANOMALY":"272.8063","TLE_LINE2":"2 54158  53.2148 124.9334 0000960  87.3039 272.8063 15.08823464 12506","GP_ID":"223326143","RA_OF_ASC_NODE":"124.9334"},{"MEAN_MOTION_DOT":"-0.00000608","SITE":"AFWTR","ECCENTRICITY":"0.00013920","PERIOD":"95.439","REF_FRAME":"TEME","REV_AT_EPOCH":"1252","BSTAR":"-0.00002015700000","TLE_LINE1":"1 54159U 22141C   23017.43437454 -.00000608  00000-0 -20157-4 0  9996","ARG_OF_PERICENTER":"104.9590","NORAD_CAT_ID":"54159","MEAN_MOTION_DDOT":"0.0000000000000","RCS_SIZE":"LARGE","OBJECT_ID":"2022-141C","OBJECT_NAME":"STARLINK-5294","ELEMENT_SET_NO":"999","CLASSIFICATION_TYPE":"U","PERIAPSIS":"538.852","OBJECT_TYPE":"PAYLOAD","DECAY_DATE":null,"FILE":"3753023","EPOCH":"2023-01-17T10:25:29.960256","MEAN_MOTION":"15.08817180","LAUNCH_DATE":"2022-10-28","RA_OF_ASC_NODE":"124.1508","GP_ID":"223325901","TLE_LINE2":"2 54159  53.2165 124.1508 0001392 104.9590 255.1556 15.08817180 12520","MEAN_ANOMALY":"255.1556","COUNTRY_CODE":"US","TIME_SYSTEM":"UTC","SEMIMAJOR_AXIS":"6917.950","APOAPSIS":"540.778","CENTER_NAME":"EARTH","MEAN_ELEMENT_THEORY":"SGP4","INCLINATION":"53.2165","EPHEMERIS_TYPE":"0"},{"MEAN_MOTION":"15.73211198","LAUNCH_DATE":"2022-10-28","CLASSIFICATION_TYPE":"U","PERIAPSIS":"349.006","OBJECT_TYPE":"PAYLOAD","EPOCH":"2023-01-17T05:27:09.732672","FILE":"3753076","DECAY_DATE":null,"EPHEMERIS_TYPE":"0","MEAN_ELEMENT_THEORY":"SGP4","INCLINATION":"53.2136","COUNTRY_CODE":"US","TIME_SYSTEM":"UTC","APOAPSIS":"350.450","SEMIMAJOR_AXIS":"6727.863","CENTER_NAME":"EARTH","RA_OF_ASC_NODE":"102.1170","TLE_LINE2":"2 54160  53.2136 102.1170 0001073 338.8730  21.2246 15.73211198 12810","GP_ID":"223354089","MEAN_ANOMALY":"21.2246","REV_AT_EPOCH":"1281","BSTAR":"0.00014967000000","TLE_LINE1":"1 54160U 22141D   23017.22719598  .00020446  00000-0  14967-3 0  9998","REF_FRAME":"TEME","PERIOD":"91.533","MEAN_MOTION_DOT":"0.00020446","SITE":"AFWTR","ECCENTRICITY":"0.00010730","OBJECT_NAME":"STARLINK-5233","ELEMENT_SET_NO":"999","MEAN_MOTION_DDOT":"0.0000000000000","RCS_SIZE":"MEDIUM","OBJECT_ID":"2022-141D","NORAD_CAT_ID":"54160","ARG_OF_PERICENTER":"338.8730"},{"NORAD_CAT_ID":"54161","ARG_OF_PERICENTER":"92.3080","ELEMENT_SET_NO":"999","OBJECT_NAME":"STARLINK-5269","RCS_SIZE":"LARGE","OBJECT_ID":"2022-141E","MEAN_MOTION_DDOT":"0.0000000000000","PERIOD":"95.440","ECCENTRICITY":"0.00013470","SITE":"AFWTR","MEAN_MOTION_DOT":"0.00029448","TLE_LINE1":"1 54161U 22141E   23017.59537737  .00029448  00000-0  18622-2 0  9994","BSTAR":"0.00186220000000","REV_AT_EPOCH":"1254","REF_FRAME":"TEME","CENTER_NAME":"EARTH","APOAPSIS":"540.774","SEMIMAJOR_AXIS":"6917.977","TIME_SYSTEM":"UTC","COUNTRY_CODE":"US","MEAN_ANOMALY":"267.8067","GP_ID":"223354080","TLE_LINE2":"2 54161  53.2158 123.7233 0001347  92.3080 267.8067 15.08808507 12541","RA_OF_ASC_NODE":"123.7233","EPHEMERIS_TYPE":"0","INCLINATION":"53.2158","MEAN_ELEMENT_THEORY":"SGP4","LAUNCH_DATE":"2022-10-28","MEAN_MOTION":"15.08808507","FILE":"3753076","DECAY_DATE":null,"EPOCH":"2023-01-17T14:17:20.604768","OBJECT_TYPE":"PAYLOAD","CLASSIFICATION_TYPE":"U","PERIAPSIS":"538.910"},{"REF_FRAME":"TEME","TLE_LINE1":"1 54162U 22141F   23017.58799637  .00008534  00000-0  55387-3 0  9996","BSTAR":"0.00055387000000","REV_AT_EPOCH":"1254","ECCENTRICITY":"0.00017250","SITE":"AFWTR","MEAN_MOTION_DOT":"0.00008534","PERIOD":"95.439","OBJECT_ID":"2022-141F","RCS_SIZE":"LARGE","MEAN_MOTION_DDOT":"0.0000000000000","ELEMENT_SET_NO":"999","OBJECT_NAME":"STARLINK-5273","ARG_OF_PERICENTER":"105.5980","NORAD_CAT_ID":"54162","EPOCH":"2023-01-17T14:06:42.886368","FILE":"3753079","DECAY_DATE":null,"OBJECT_TYPE":"PAYLOAD","PERIAPSIS":"538.604","CLASSIFICATION_TYPE":"U","LAUNCH_DATE":"2022-10-28","MEAN_MOTION":"15.08822840","INCLINATION":"53.2165","MEAN_ELEMENT_THEORY":"SGP4","EPHEMERIS_TYPE":"0","MEAN_ANOMALY":"254.5203","GP_ID":"223353887","TLE_LINE2":"2 54162  53.2165 123.6824 0001725 105.5980 254.5203 15.08822840 12542","RA_OF_ASC_NODE":"123.6824","CENTER_NAME":"EARTH","APOAPSIS":"540.991","SEMIMAJOR_AXIS":"6917.933","TIME_SYSTEM":"UTC","COUNTRY_CODE":"US"},{"MEAN_MOTION_DOT":"-0.00003255","ECCENTRICITY":"0.00010600","SITE":"AFWTR","PERIOD":"95.439","REF_FRAME":"TEME","REV_AT_EPOCH":"1268","BSTAR":"-0.00018663000000","TLE_LINE1":"1 54163U 22141G   23017.59998644 -.00003255  00000-0 -18663-3 0  9990","ARG_OF_PERICENTER":"102.8978","NORAD_CAT_ID":"54163","MEAN_MOTION_DDOT":"0.0000000000000","OBJECT_ID":"2022-141G","RCS_SIZE":"LARGE","OBJECT_NAME":"STARLINK-5161","ELEMENT_SET_NO":"999","PERIAPSIS":"539.061","CLASSIFICATION_TYPE":"U","OBJECT_TYPE":"PAYLOAD","EPOCH":"2023-01-17T14:23:58.828416","FILE":"3753286","DECAY_DATE":null,"MEAN_MOTION":"15.08824157","LAUNCH_DATE":"2022-10-28","RA_OF_ASC_NODE":"113.7715","GP_ID":"223384516","TLE_LINE2":"2 54163  53.2148 113.7715 0001060 102.8978 257.2132 15.08824157 12681","MEAN_ANOMALY":"257.2132","COUNTRY_CODE":"US","TIME_SYSTEM":"UTC","SEMIMAJOR_AXIS":"6917.929","APOAPSIS":"540.527","CENTER_NAME":"EARTH","MEAN_ELEMENT_THEORY":"SGP4","INCLINATION":"53.2148","EPHEMERIS_TYPE":"0"}];
